{
  "norad_id": 68820,
  "name": "STARLINK-37470",
  "history": [
    {
      "epoch": "2026-04-27T14:22:54.814656Z",
      "apogee_km": 263.8545769474631,
      "perigee_km": 262.1200480995185,
      "latitude_deg": -7.928273840139303e-05,
      "longitude_deg": -108.55542968894191,
      "height_km": 266.314747572685,
      "semi_major_axis_km": 6641.1243125234905,
      "eccentricity": 0.00013059,
      "inclination_deg": 97.2845,
      "raan_deg": 322.7597,
      "arg_perigee_deg": 98.1119,
      "mean_anomaly_deg": 262.0309,
      "mean_motion_rev_day": 16.04132905
    }
  ]
}