STARLINK-37470          
1 68820U 26089U   26117.59924554 -.00939793  30650-3 -14627-2 0  9990
2 68820  97.2845 322.7597 0001305  98.1119 262.0309 16.04132905   726
